     2.100          NAVIGATION                              RINEX VERSION / TYPE
fic2rin                                 08/05/2017 00:19:32 PGM / RUN BY / DATE
                                                            END OF HEADER
 6 17  8  4  8  0  0.0  .384646002203D-03  .409272615798D-11  .000000000000D+00
     .540000000000D+02 -.830312500000D+02  .395123601341D-08  .283075007046D+01
    -.413879752159D-05  .637345598079D-03  .993348658085D-05  .515372596550D+04
     .460800000000D+06 -.372529029846D-07  .262923794730D+01 -.353902578354D-07
     .968181988826D+00  .193781250000D+03 -.105692916363D+01 -.766960518413D-08
     .792890169915D-10  .100000000000D+01  .196000000000D+04  .000000000000D+00
     .240000000000D+01  .000000000000D+00  .465661287308D-08  .540000000000D+02
     .453606000000D+06  .400000000000D+01
 8 17  8  4  8  0  0.0 -.686733983457D-04 -.136424205266D-11  .000000000000D+00
     .700000000000D+02 -.674062500000D+02  .443732768965D-08 -.856419971752D+00
    -.338628888130D-05  .253209611401D-02  .299327075481D-05  .515367071724D+04
     .460800000000D+06 -.838190317154D-07  .157395898745D+01  .000000000000D+00
     .967010991661D+00  .326500000000D+03 -.623182675043D+00 -.828677374882D-08
    -.258939357292D-09  .100000000000D+01  .196000000000D+04  .000000000000D+00
     .240000000000D+01  .000000000000D+00  .558793544769D-08  .700000000000D+02
     .453606000000D+06  .400000000000D+01
 9 17  8  4  8  0  0.0  .418705865741D-03  .716227077646D-11  .000000000000D+00
     .930000000000D+02 -.139062500000D+02  .510485549486D-08 -.125451379794D+01
    -.709667801857D-06  .657431897707D-03  .634603202343D-05  .515357332611D+04
     .460800000000D+06  .167638063431D-07 -.156762686357D+01 -.372529029846D-08
     .952884152067D+00  .258437500000D+03  .191352136473D+01 -.820569894316D-08
    -.209294432239D-09  .100000000000D+01  .196000000000D+04  .000000000000D+00
     .240000000000D+01  .000000000000D+00  .931322574615D-09  .930000000000D+02
     .453606000000D+06  .400000000000D+01
10 17  8  4  8  0  0.0  .271475873888D-04  .111413100967D-10  .000000000000D+00
     .420000000000D+02  .140937500000D+02  .461304929488D-08  .637833287585D+00
     .732019543648D-06  .266401085537D-02  .755861401558D-05  .515366850662D+04
     .460800000000D+06  .111758708954D-07 -.260720817115D+01  .949949026108D-07
     .960393954252D+00  .235062500000D+03 -.280375219965D+01 -.800711924294D-08
     .514307137242D-09  .100000000000D+01  .196000000000D+04  .000000000000D+00
     .240000000000D+01  .000000000000D+00  .186264514923D-08  .420000000000D+02
     .453606000000D+06  .400000000000D+01
11 17  8  4  8  0  0.0 -.706852879375D-03 -.250111042988D-11  .000000000000D+00
     .790000000000D+02 -.126968750000D+03  .546451333320D-08  .214257481228D+01
    -.655651092529D-05  .170230835211D-01  .680238008499D-05  .515372829819D+04
     .460800000000D+06  .311061739922D-06  .223054882903D+01 -.316649675369D-07
     .901745423625D+00  .212125000000D+03  .167132451401D+01 -.832606109958D-08
    -.187150652719D-09  .100000000000D+01  .196000000000D+04  .000000000000D+00
     .240000000000D+01  .000000000000D+00 -.121071934700D-07  .790000000000D+02
     .453606000000D+06  .400000000000D+01
13 17  8  4  8  0  0.0 -.889352522790D-04 -.795807864051D-12  .000000000000D+00
     .830000000000D+02 -.188437500000D+02  .463733602080D-08 -.301823897983D+01
    -.109709799290D-05  .351661990862D-02  .672414898872D-05  .515368622398D+04
     .460800000000D+06  .353902578354D-07 -.144031043585D+01  .000000000000D+00
     .968887187023D+00  .252656250000D+03  .179436034249D+01 -.792068707127D-08
    -.281440294547D-09  .100000000000D+01  .196000000000D+04  .000000000000D+00
     .240000000000D+01  .000000000000D+00 -.111758708954D-07  .830000000000D+02
     .453606000000D+06  .400000000000D+01
14 17  8  4  8  0  0.0 -.797836109996D-04 -.113686837722D-11  .000000000000D+00
     .300000000000D+02 -.117500000000D+02  .478341353409D-08 -.167938424173D+01
    -.447034835815D-06  .934768887237D-02  .651367008686D-05  .515367236519D+04
     .460800000000D+06  .167638063431D-06 -.148024393010D+01  .119209289551D-06
     .961407835478D+00  .250718750000D+03 -.195136721343D+01 -.796318884164D-08
    -.194650965137D-09  .100000000000D+01  .196000000000D+04  .000000000000D+00
     .240000000000D+01  .000000000000D+00 -.977888703346D-08  .300000000000D+02
     .453606000000D+06  .400000000000D+01
15 17  8  4  8  0  0.0 -.354233197868D-03 -.454747350886D-12  .000000000000D+00
     .930000000000D+02 -.208750000000D+02  .562702010226D-08 -.222575806636D+01
    -.142678618431D-05  .939953501802D-02  .564381480217D-05  .515357859230D+04
     .460800000000D+06  .894069671631D-07 -.163096394717D+01 -.149011611938D-06
     .928498978338D+00  .252718750000D+03  .587639068795D+00 -.843928010132D-08
    -.425017703693D-10  .100000000000D+01  .196000000000D+04  .000000000000D+00
     .240000000000D+01  .000000000000D+00 -.107102096081D-07  .930000000000D+02
     .453606000000D+06  .400000000000D+01
16 17  8  4  8  0  0.0  .365078449249D-04  .227373675443D-12  .000000000000D+00
     .490000000000D+02  .818437500000D+02  .402981071493D-08 -.460892652475D+00
     .425241887569D-05  .928153912537D-02  .406429171562D-05  .515374020767D+04
     .460800000000D+06  .111758708954D-06  .615193509713D+00  .689178705215D-07
     .989460683809D+00  .315687500000D+03  .462477042494D+00 -.808997983728D-08
     .753602819154D-10  .100000000000D+01  .196000000000D+04  .000000000000D+00
     .240000000000D+01  .000000000000D+00 -.107102096081D-07  .490000000000D+02
     .453606000000D+06  .400000000000D+01
17 17  8  4  8  0  0.0 -.165539793670D-03  .227373675443D-11  .000000000000D+00
     .730000000000D+02 -.717500000000D+02  .423981946264D-08 -.136348206134D+01
    -.364147126675D-05  .117105853278D-01  .293366611004D-05  .515366543007D+04
     .460800000000D+06  .165775418282D-06  .163248369815D+01  .329688191414D-06
     .980278874516D+00  .334625000000D+03 -.184756367259D+01 -.817426906255D-08
    -.353586156854D-09  .100000000000D+01  .196000000000D+04  .000000000000D+00
     .240000000000D+01  .000000000000D+00 -.111758708954D-07  .730000000000D+02
     .453606000000D+06  .400000000000D+01
18 17  8  4  8  0  0.0  .625954009593D-03  .113686837722D-11  .000000000000D+00
     .710000000000D+02  .171875000000D+02  .548201406218D-08  .932923354631D-01
     .830739736557D-06  .181318996474D-01  .765360891819D-05  .515361689186D+04
     .460800000000D+06 -.339001417160D-06 -.265181779966D+01  .135973095894D-06
     .926040023707D+00  .218125000000D+03 -.178896260780D+01 -.871071997931D-08
     .488591780380D-09  .100000000000D+01  .196000000000D+04  .000000000000D+00
     .240000000000D+01  .000000000000D+00 -.111758708954D-07  .710000000000D+02
     .453606000000D+06  .400000000000D+01
19 17  8  4  8  0  0.0 -.492659863085D-03  .170530256582D-11  .000000000000D+00
     .260000000000D+02 -.829687500000D+02  .421374694805D-08  .164770267777D+01
    -.461004674435D-05  .102154652122D-01  .371597707272D-05  .515367512703D+04
     .460800000000D+06 -.838190317154D-07  .168018582575D+01 -.139698386192D-06
     .977596666882D+00  .325406250000D+03  .104119504520D+01 -.814105339327D-08
    -.392159192147D-09  .100000000000D+01  .196000000000D+04  .000000000000D+00
     .240000000000D+01  .000000000000D+00 -.153668224812D-07  .260000000000D+02
     .453606000000D+06  .400000000000D+01
20 17  8  4  8  0  0.0  .482073519379D-03  .136424205266D-11  .000000000000D+00
     .600000000000D+02  .154375000000D+02  .522200323168D-08 -.230490777003D+01
     .882893800735D-06  .441282137763D-02  .744313001633D-05  .515371720505D+04
     .460800000000D+06  .130385160446D-07 -.270304269251D+01  .372529029846D-07
     .927453244996D+00  .210812500000D+03  .163652106824D+01 -.827248743945D-08
     .562523431359D-09  .100000000000D+01  .196000000000D+04  .000000000000D+00
     .240000000000D+01  .000000000000D+00 -.838190317154D-08  .600000000000D+02
     .453606000000D+06  .400000000000D+01
21 17  8  4  8  0  0.0 -.489694066346D-03  .272848410532D-11  .000000000000D+00
     .100000000000D+03 -.818750000000D+02  .477734185261D-08  .995494809806D+00
    -.448338687420D-05  .239504011115D-01  .987574458122D-05  .515363861275D+04
     .460800000000D+06 -.376254320145D-06  .259167940400D+01 -.294297933578D-06
     .940755550313D+00  .188500000000D+03 -.165315577952D+01 -.845856661897D-08
    -.510735559900D-10  .100000000000D+01  .196000000000D+04  .000000000000D+00
     .340000000000D+01  .000000000000D+00 -.977888703346D-08  .100000000000D+03
     .453606000000D+06  .400000000000D+01
22 17  8  4  8  0  0.0 -.767465680838D-04 -.125055521494D-10  .000000000000D+00
     .101000000000D+03  .206562500000D+02  .536129474802D-08 -.197335884545D+01
     .116229057312D-05  .740255229175D-02  .727921724319D-05  .515376018143D+04
     .460800000000D+06  .160187482834D-06 -.265208531471D+01  .763684511185D-07
     .924109315628D+00  .213468750000D+03 -.169422498681D+01 -.830320300459D-08
     .578238371663D-09  .100000000000D+01  .196000000000D+04  .000000000000D+00
     .240000000000D+01  .000000000000D+00 -.176951289177D-07  .101000000000D+03
     .453606000000D+06  .400000000000D+01
23 17  8  4  8  0  0.0 -.215888023376D-03 -.454747350886D-12  .000000000000D+00
     .900000000000D+02 -.145625000000D+02  .524057543386D-08 -.273620918708D+01
    -.100769102573D-05  .118818201590D-01  .631250441074D-05  .515369971085D+04
     .460800000000D+06  .838190317154D-07 -.156644708159D+01 -.236555933952D-06
     .943743801872D+00  .251843750000D+03 -.243230202353D+01 -.816033991091D-08
    -.175007289756D-09  .100000000000D+01  .196000000000D+04  .000000000000D+00
     .340000000000D+01  .000000000000D+00 -.204890966415D-07  .900000000000D+02
     .453606000000D+06  .400000000000D+01
